NORAD_CAT_ID,OBJECT_NAME,OBJECT_TYPE,EPOCH,MEAN_MOTION,ECCENTRICITY,INCLINATION,RA_OF_ASC_NODE,ARG_OF_PERICENTER,MEAN_ANOMALY,BSTAR,MEAN_MOTION_DOT,MEAN_MOTION_DDOT,TLE_LINE0,TLE_LINE1,TLE_LINE2,SEMIMAJOR_AXIS,PERIOD,APOGEE,PERIGEE,DECAYED
52995.0,STARLINK-4296,PAYLOAD,2023-01-30 11:08:36,15.08836546,0.0001178,53.2165,145.8572,97.9435,262.1691,0.00010035,1.309e-05,0.0,0 STARLINK-4296,1 52995U 22076K   23030.46431663  .00001309  00000-0  10035-3 0  9993,2 52995  53.2165 145.8572 0001178  97.9435 262.1691 15.08836546 31614,6917.891,95.438,540.571,538.941,0.0
52995.0,STARLINK-4296,PAYLOAD,2023-01-31 10:59:24,15.08835766,0.0001125,53.2167,141.3964,95.0596,265.0524,7.8021e-05,9.54e-06,0.0,0 STARLINK-4296,1 52995U 22076K   23031.45791913  .00000954  00000-0  78021-4 0  9995,2 52995  53.2167 141.3964 0001125  95.0596 265.0524 15.08835766 32230,6917.893,95.438,540.537,538.98,0.0
52995.0,STARLINK-4296,PAYLOAD,2023-01-31 12:34:47,15.08836793,0.0001136,53.2167,141.0992,93.2333,266.8789,8.6419e-05,1.088e-05,0.0,0 STARLINK-4296,1 52995U 22076K   23031.52415845  .00001088  00000-0  86419-4 0  9999,2 52995  53.2167 141.0992 0001136  93.2333 266.8789 15.08836793 31770,6917.89,95.438,540.541,538.969,0.0
52995.0,STARLINK-4296,PAYLOAD,2023-01-31 17:20:56,15.08841901,0.0001135,53.2175,140.2066,80.652,279.46,6.7315e-05,7.84e-06,0.0,0 STARLINK-4296,1 52995U 22076K   23031.72287621  .00000784  00000-0  67315-4 0  9996,2 52995  53.2175 140.2066 0001135  80.6520 279.4600 15.08841901 31802,6917.875,95.437,540.525,538.954,0.0
52995.0,STARLINK-4296,PAYLOAD,2023-02-01 12:25:34,15.0883839,0.0001189,53.2168,136.6393,89.5605,270.5524,4.3724e-05,4.08e-06,0.0,0 STARLINK-4296,1 52995U 22076K   23032.51775970  .00000408  00000-0  43724-4 0  9994,2 52995  53.2168 136.6393 0001189  89.5605 270.5524 15.08838390 31925,6917.885,95.438,540.573,538.928,0.0
52995.0,STARLINK-4296,PAYLOAD,2023-02-02 12:16:22,15.08832854,0.0001259,53.2162,132.1803,82.3106,277.8029,-3.2775e-05,-8.09e-06,0.0,0 STARLINK-4296,1 52995U 22076K   23033.51136774 -.00000809  00000-0 -32775-4 0  9999,2 52995  53.2162 132.1803 0001259  82.3106 277.8029 15.08832854 32077,6917.902,95.438,540.638,538.896,0.0
52995.0,STARLINK-4296,PAYLOAD,2023-02-02 15:27:07,15.08840937,0.0001284,53.216,131.5821,125.345,234.7662,-4.2634e-06,-3.56e-06,0.0,0 STARLINK-4296,1 52995U 22076K   23033.64384003 -.00000356  00000-0 -42634-5 0  9996,2 52995  53.2160 131.5821 0001284 125.3450 234.7662 15.08840937 32566,6917.878,95.437,540.631,538.854,0.0
52995.0,STARLINK-4296,PAYLOAD,2023-02-03 08:56:22,15.0883619,0.0001277,53.2164,128.3149,97.2331,262.8806,3.0048e-05,1.9e-06,0.0,0 STARLINK-4296,1 52995U 22076K   23034.37248636  .00000190  00000-0  30048-4 0  9997,2 52995  53.2164 128.3149 0001277  97.2331 262.8806 15.08836190 32203,6917.892,95.438,540.64,538.874,0.0
52995.0,STARLINK-4296,PAYLOAD,2023-02-03 15:17:54,15.0884487,0.0001188,53.2164,127.1237,98.0501,262.0626,4.6348e-05,4.5e-06,0.0,0 STARLINK-4296,1 52995U 22076K   23034.63744005  .00000450  00000-0  46348-4 0  9996,2 52995  53.2164 127.1237 0001188  98.0501 262.0626 15.08844870 32247,6917.866,95.437,540.552,538.909,0.0
52995.0,STARLINK-4296,PAYLOAD,2023-02-04 11:57:56,15.08837687,0.0001337,53.216,123.2589,85.7915,274.323,8.6998e-05,1.097e-05,0.0,0 STARLINK-4296,1 52995U 22076K   23035.49856551  .00001097  00000-0  86998-4 0  9994,2 52995  53.2160 123.2589 0001337  85.7915 274.3230 15.08837687 32849,6917.887,95.438,540.677,538.828,0.0
52995.0,STARLINK-4296,PAYLOAD,2023-02-04 13:33:19,15.08840447,0.0001379,53.2164,122.9615,86.0147,274.1002,0.00010343,1.359e-05,0.0,0 STARLINK-4296,1 52995U 22076K   23035.56480343  .00001359  00000-0  10343-3 0  9995,2 52995  53.2164 122.9615 0001379  86.0147 274.1002 15.08840447 32388,6917.879,95.438,540.698,538.79,0.0
52995.0,STARLINK-4296,PAYLOAD,2023-02-05 11:48:43,15.08850144,0.0001464,53.2176,118.8004,71.5895,288.5256,-0.00014062,-2.526e-05,0.0,0 STARLINK-4296,1 52995U 22076K   23036.49216787 -.00002526  00000-0 -14062-3 0  9998,2 52995  53.2176 118.8004 0001464  71.5895 288.5256 15.08850144 32522,6917.849,95.437,540.727,538.702,0.0
52995.0,STARLINK-4296,PAYLOAD,2023-02-05 22:56:25,15.08839165,0.0001623,53.2178,116.7189,78.3027,281.8147,5.9548e-05,6.6e-06,0.0,0 STARLINK-4296,1 52995U 22076K   23036.95584737  .00000660  00000-0  59548-4 0  9996,2 52995  53.2178 116.7189 0001623  78.3027 281.8147 15.08839165 33069,6917.883,95.438,540.871,538.625,0.0
52995.0,STARLINK-4296,PAYLOAD,2023-02-06 11:39:29,15.0884641,0.0001374,53.2175,114.3392,82.6938,277.4211,4.9068e-05,4.93e-06,0.0,0 STARLINK-4296,1 52995U 22076K   23037.48576221  .00000493  00000-0  49068-4 0  9994,2 52995  53.2175 114.3392 0001374  82.6938 277.4211 15.08846410 32678,6917.861,95.437,540.676,538.775,0.0
52995.0,STARLINK-4296,PAYLOAD,2023-02-07 09:54:53,15.08843805,0.0001243,53.2173,110.1762,87.6542,272.4593,0.00011793,1.59e-05,0.0,0 STARLINK-4296,1 52995U 22076K   23038.41311909  .00001590  00000-0  11793-3 0  9990,2 52995  53.2173 110.1762 0001243  87.6542 272.4593 15.08843805 32811,6917.869,95.437,540.594,538.874,0.0
52995.0,STARLINK-4296,PAYLOAD,2023-02-07 21:02:35,15.0885027,0.0001244,53.2177,108.0956,108.123,251.9898,2.91e-05,1.75e-06,0.0,0 STARLINK-4296,1 52995U 22076K   23038.87679483  .00000175  00000-0  29100-4 0  9994,2 52995  53.2177 108.0956 0001244 108.1230 251.9898 15.08850270 32881,6917.849,95.437,540.575,538.853,0.0
52995.0,STARLINK-4296,PAYLOAD,2023-02-08 09:45:41,15.08836908,0.0001406,53.2181,105.7165,96.861,263.2542,-3.0903e-05,-7.8e-06,0.0,0 STARLINK-4296,1 52995U 22076K   23039.40672674 -.00000780  00000-0 -30903-4 0  9996,2 52995  53.2181 105.7165 0001406  96.8610 263.2542 15.08836908 33433,6917.89,95.438,540.727,538.782,0.0
52995.0,STARLINK-4296,PAYLOAD,2023-02-09 11:11:51,15.08840313,0.0001612,53.2182,100.9564,118.417,241.6984,-2.3706e-05,-6.65e-06,0.0,0 STARLINK-4296,1 52995U 22076K   23040.46656674 -.00000665  00000-0 -23706-4 0  9991,2 52995  53.2182 100.9564 0001612 118.4170 241.6984 15.08840313 33126,6917.879,95.438,540.86,538.629,0.0
52995.0,STARLINK-4296,PAYLOAD,2023-02-09 12:47:14,15.08840989,0.00015,53.2179,100.6591,116.2185,243.8962,-3.307e-06,-3.41e-06,0.0,0 STARLINK-4296,1 52995U 22076K   23040.53280640 -.00000341  00000-0 -33070-5 0  9992,2 52995  53.2179 100.6591 0001500 116.2185 243.8962 15.08840989 33609,6917.877,95.437,540.78,538.705,0.0
52995.0,STARLINK-4296,PAYLOAD,2023-02-09 20:44:10,15.08839697,0.0001522,53.2185,99.1724,75.3347,284.7814,-6.6551e-06,-3.94e-06,0.0,0 STARLINK-4296,1 52995U 22076K   23040.86400894 -.00000394  00000-0 -66551-5 0  9991,2 52995  53.2185  99.1724 0001522  75.3347 284.7814 15.08839697 33182,6917.881,95.438,540.799,538.693,0.0
52995.0,STARLINK-4296,PAYLOAD,2023-02-10 03:05:43,15.08827396,0.0001516,53.2181,97.9861,83.7518,276.3647,8.5662e-05,1.075e-05,0.0,0 STARLINK-4296,1 52995U 22076K   23041.12897605  .00001075  00000-0  85662-4 0  9999,2 52995  53.2181  97.9861 0001516  83.7518 276.3647 15.08827396 33221,6917.919,95.438,540.833,538.735,0.0
52995.0,STARLINK-4296,PAYLOAD,2023-02-10 11:02:38,15.08836267,0.000131,53.2175,96.495,97.2168,262.8973,0.00012403,1.686e-05,0.0,0 STARLINK-4296,1 52995U 22076K   23041.46017106  .00001686  00000-0  12403-3 0  9996,2 52995  53.2175  96.4950 0001310  97.2168 262.8973 15.08836267 33746,6917.892,95.438,540.663,538.851,0.0
52995.0,STARLINK-4296,PAYLOAD,2023-02-10 20:34:58,15.08831562,0.0001185,53.2169,94.7109,81.9206,278.192,0.00013076,1.793e-05,0.0,0 STARLINK-4296,1 52995U 22076K   23041.85761737  .00001793  00000-0  13076-3 0  9991,2 52995  53.2169  94.7109 0001185  81.9206 278.1920 15.08831562 33339,6917.906,95.438,540.591,538.951,0.0
52995.0,STARLINK-4296,PAYLOAD,2023-02-11 20:25:44,15.08846478,0.0001377,53.2174,90.2518,83.3143,276.8006,3.8005e-05,3.17e-06,0.0,0 STARLINK-4296,1 52995U 22076K   23042.85121221  .00000317  00000-0  38005-4 0  9991,2 52995  53.2174  90.2518 0001377  83.3143 276.8006 15.08846478 33487,6917.861,95.437,540.678,538.773,0.0
52995.0,STARLINK-4296,PAYLOAD,2023-02-12 09:08:50,15.08825834,7.8e-05,53.2171,87.8719,81.0276,279.0805,0.00020097,2.911e-05,0.0,0 STARLINK-4296,1 52995U 22076K   23043.38114274  .00002911  00000-0  20097-3 0  9993,2 52995  53.2171  87.8719 0000780  81.0276 279.0805 15.08825834 34035,6917.924,95.438,540.328,539.249,0.0
52995.0,STARLINK-4296,PAYLOAD,2023-02-12 12:19:36,15.08841549,0.0001583,53.2152,87.2808,66.175,293.9408,0.00016761,2.381e-05,0.0,0 STARLINK-4296,1 52995U 22076K   23043.51361494  .00002381  00000-0  16761-3 0  9990,2 52995  53.2152  87.2808 0001583  66.1750 293.9408 15.08841549 33584,6917.876,95.437,540.836,538.646,0.0
52995.0,STARLINK-4296,PAYLOAD,2023-02-12 23:27:18,15.08837525,0.0001556,53.2175,85.1954,89.9661,270.1509,2.7752e-05,1.54e-06,0.0,0 STARLINK-4296,1 52995U 22076K   23043.97730021  .00000154  00000-0  27752-4 0  9995,2 52995  53.2175  85.1954 0001556  89.9661 270.1509 15.08837525 34121,6917.888,95.438,540.829,538.677,0.0
52995.0,STARLINK-4296,PAYLOAD,2023-02-13 12:10:22,15.0885527,0.0001533,53.2161,82.8183,91.8454,268.2714,1.4211e-05,-6.2e-07,0.0,0 STARLINK-4296,1 52995U 22076K   23044.50720885 -.00000062  00000-0  14211-4 0  9997,2 52995  53.2161  82.8183 0001533  91.8454 268.2714 15.08855270 33730,6917.834,95.437,540.759,538.638,0.0
52995.0,STARLINK-4296,PAYLOAD,2023-02-14 08:50:24,15.08832749,0.0001601,53.218,78.9504,109.1806,250.9359,5.3445e-05,5.63e-06,0.0,0 STARLINK-4296,1 52995U 22076K   23045.36834353  .00000563  00000-0  53445-4 0  9995,2 52995  53.2180  78.9504 0001601 109.1806 250.9359 15.08832749 34330,6917.903,95.438,540.875,538.66,0.0
52995.0,STARLINK-4296,PAYLOAD,2023-02-14 12:01:10,15.08847138,0.0001412,53.217,78.3572,93.6528,266.4625,5.8411e-05,6.42e-06,0.0,0 STARLINK-4296,1 52995U 22076K   23045.50081487  .00000642  00000-0  58411-4 0  9999,2 52995  53.2170  78.3572 0001412  93.6528 266.4625 15.08847138 33881,6917.859,95.437,540.7,538.747,0.0
